[{"OBJECT_NAME":"TIANMU-1 10","OBJECT_ID":"2023-101D","EPOCH":"2026-03-09T23:06:46.939392","MEAN_MOTION":15.2921896,"ECCENTRICITY":0.00069292,"INCLINATION":97.2749,"RA_OF_ASC_NODE":122.1027,"ARG_OF_PERICENTER":133.6162,"MEAN_ANOMALY":226.5654,"EPHEMERIS_TYPE":0,"CLASSIFICATION_TYPE":"U","NORAD_CAT_ID":57402,"ELEMENT_SET_NO":999,"REV_AT_EPOCH":14647,"BSTAR":0.00032238884,"MEAN_MOTION_DOT":9.075e-5,"MEAN_MOTION_DDOT":0},{"OBJECT_NAME":"STARLINK-32693","OBJECT_ID":"2024-251F","EPOCH":"2026-03-09T22:32:10.583232","MEAN_MOTION":15.30183335,"ECCENTRICITY":0.00018731,"INCLINATION":53.1595,"RA_OF_ASC_NODE":331.4432,"ARG_OF_PERICENTER":133.8454,"MEAN_ANOMALY":226.2702,"EPHEMERIS_TYPE":0,"CLASSIFICATION_TYPE":"U","NORAD_CAT_ID":62437,"ELEMENT_SET_NO":999,"REV_AT_EPOCH":6802,"BSTAR":0.00088500833,"MEAN_MOTION_DOT":0.0002593,"MEAN_MOTION_DDOT":0}]
